ONEWEB-0207             
1 48242U 21031AJ  24355.84945533 -.00000161  00000+0 -46832-3 0  9992
2 48242  87.9000  37.7318 0002039  99.5059 260.6301 13.14503359176912
ONEWEB-0208             
1 48243U 21031AK  24355.83121891  .00000030  00000+0  45394-4 0  9991
2 48243  87.9003  37.7498 0001748 103.0959 257.0365 13.14503669176926
ONEWEB-0200             
1 48244U 21031AL  24355.64250373  .00000138  00000+0  33826-3 0  9994
2 48244  87.8999  37.7821 0001726 104.5429 255.5892 13.14504207176820
ONEWEB-0217             
1 48245U 21031AM  24356.11507554  .00000272  00000+0  70048-3 0  9990
2 48245  87.8999  37.6726 0001665 107.9230 252.2082 13.14504013176845
ONEWEB-0211             
1 48767U 21045A   24355.96964602  .00000050  00000+0  99284-4 0  9995
2 48767  87.9065   7.3240 0001544  91.7451 268.3856 13.15547489174126
ONEWEB-0223             
1 48768U 21045B   24355.76363931 -.00000066  00000+0 -20841-3 0  9993
2 48768  87.9066   7.3779 0001232  85.6044 274.5227 13.15549873172958
ONEWEB-0230             
1 48769U 21045C   24355.96330197  .00000116  00000+0  27464-3 0  9996
2 48769  87.9067   7.4069 0001735  86.2688 273.8641 13.15549929174352
ONEWEB-0237             
1 48770U 21045D   24356.02826835  .00000167  00000+0  40832-3 0  9995
2 48770  87.9072   7.3363 0001358  86.9725 273.1561 13.15550538174101
